STARLINK-36296
1 68380U 26063A   26114.50223028  .00236896  00000+0  15163-2 0  9999
2 68380  97.2854 256.7071 0001226  59.0405 301.0981 15.75629712  4869
STARLINK-37111
1 68381U 26063B   26114.37893830  .00155631  00000+0  10235-2 0  9991
2 68381  97.2857 256.4115 0000902  71.0203 289.1160 15.75231973  4839
STARLINK-36946
1 68382U 26063C   26114.72777084  .00174716  00000+0  89149-3 0  9999
2 68382  97.2839 256.8539 0001252 127.0994 233.0389 15.80895605  4893
STARLINK-37121
1 68383U 26063D   26114.44669944  .00192546  00000+0  12596-2 0  9996
2 68383  97.2855 256.4719 0001286  55.3777 304.7609 15.75250268  4847
STARLINK-37137
1 68384U 26063E   26114.72092696  .00351292  00000+0  22497-2 0  9998
2 68384  97.2846 256.7097 0001398  47.1118 313.0264 15.75300846  4884
STARLINK-37128
1 68385U 26063F   26114.83335647 -.00031596  00000+0 -21165-3 0  9993
2 68385  97.2843 256.9285 0001020  98.1483  53.1061 15.75201578  5831
STARLINK-37198
1 68386U 26063G   26114.38740743  .00164949  00000+0  10838-2 0  9992
2 68386  97.2848 256.3984 0001297 350.2407   9.8833 15.75225973  4830
STARLINK-37223
1 68387U 26063H   26114.83335647 -.00014152  00000+0 -94186-4 0  9998
2 68387  97.2844 256.9328 0001283 112.1739  51.0865 15.75185978  5883
STARLINK-37203
1 68388U 26063J   26114.59986819 -.00060452  00000+0 -40529-3 0  9990
2 68388  97.2840 256.7221 0001025  30.3707 329.7617 15.75304310  4871
STARLINK-37197
1 68389U 26063K   26114.46046214  .00191271  00000+0  12516-2 0  9999
2 68389  97.2849 256.4511 0001558  26.8895 333.2451 15.75247029  4845
STARLINK-37193
1 68390U 26063L   26114.34135569  .00214364  00000+0  13791-2 0  9995
2 68390  97.2858 256.6138 0001094  73.9055 286.2331 15.75575287  4844
STARLINK-37216
1 68391U 26063M   26114.75233771  .00136798  00000+0  90168-3 0  9993
2 68391  97.2856 256.8221 0001407  56.5546 303.5854 15.75234204  4897
STARLINK-37215
1 68392U 26063N   26114.49117139  .00158220  00000+0  10401-2 0  9999
2 68392  97.2837 256.5628 0001303 113.0452 247.0951 15.75235638  4853
STARLINK-37184
1 68393U 26063P   26114.83335647 -.00039741  00000+0 -26660-3 0  9997
2 68393  97.2841 256.9542 0001391  86.3769 124.8646 15.75207659  5887
STARLINK-37157
1 68394U 26063Q   26114.38916968  .00162038  00000+0  10655-2 0  9999
2 68394  97.2856 256.3959 0001954 359.9536   0.1728 15.75217279  4836
STARLINK-37172
1 68395U 26063R   26114.38105329  .00178170  00000+0  11692-2 0  9997
2 68395  97.2854 256.4067 0001232  60.0126 300.1262 15.75217830  4839
